DOT-1                   
1 44399U 19038P   22073.44074168  .00007822  00000+0  43246-3 0  9998
2 44399  97.6288  41.7490 0025502 105.4651 254.9400 15.13882119148569
SOKRAT                  
1 44404U 19038U   22073.45960871  .00013172  00000+0  69830-3 0  9993
2 44404  97.6242  42.3568 0022693 102.1409 258.2367 15.15282950148627
LUCKY-7                 
1 44406U 19038W   22073.53903493  .00007087  00000+0  38828-3 0  9992
2 44406  97.6276  42.1612 0025339  97.9953 262.4155 15.14243580148592
D-STAR ONE (EXOCONNECT) 
1 44410U 19038AA  22073.49207254  .00014384  00000+0  72758-3 0  9992
2 44410  97.6200  42.9980 0022316  98.3961 261.9803 15.16923150148680
NARSSCUBE-2             
1 44415U 19022E   22073.59162152  .00010376  00000+0  33147-3 0  9994
2 44415  51.6402 216.3353 0010952  74.3709 285.8481 15.32982324145553
DUCHIFAT-3              
1 44854U 19089C   22073.84594089  .00003772  00000+0  30132-3 0  9993
2 44854  36.9660 300.8849 0007135 183.3191 281.9791 15.00296089123712
OPS-SAT                 
1 44878U 19092F   22073.41166717  .00011296  00000+0  55322-3 0  9997
2 44878  97.4785 258.3014 0012265 315.3635  44.6610 15.18266927123765
FLORIPASAT-1            
1 44885U 19093G   22073.81231432  .00002057  00000+0  26082-3 0  9993
2 44885  97.9007 155.4225 0015835 138.5857 221.6545 14.82726086120828
HUSKYSAT-1 (HO-107)     
1 45119U 19071J   22073.51249067  .00022563  00000+0  56215-3 0  9995
2 45119  51.6402 164.3386 0008875 188.0973 171.9870 15.40103716118714
G-SAT                   
1 45597U 98067RK  22073.14817050  .00353507  00000+0  15357-2 0  9995
2 45597  51.6335  41.5630 0003185 113.8456 246.2881 15.83296987106858
BY70-2                  
1 45857U 20042B   22073.78385092  .00007643  00000+0  10545-2 0  9999
2 45857  97.9594 151.6202 0011527  70.6801 289.5657 14.78400867 91466
SALSAT                  
1 46495U 20068K   22073.57223491  .00003006  00000+0  22164-3 0  9997
2 46495  97.7220  14.9328 0015385 235.7241 124.2528 15.03998170 79924
NETSAT-4                
1 46504U 20068U   22073.57973305  .00004154  00000+0  31480-3 0  9990
2 46504  97.7130  13.6497 0011534 289.3700  70.6280 15.02769057 79798
NETSAT-3                
1 46505U 20068V   22073.39280931  .00002595  00000+0  19868-3 0  9990
2 46505  97.7149  13.4030 0010930 305.4275  54.5929 15.02719834 79773
NETSAT-1                
1 46506U 20068W   22073.53930291  .00002725  00000+0  20870-3 0  9998
2 46506  97.7154  13.4915 0008295 321.2347  38.8281 15.02692852 79797
NETSAT-2                
1 46507U 20068X   22073.54697819  .00002996  00000+0  22910-3 0  9993
2 46507  97.7154  13.4930 0007186 329.2317  30.8494 15.02673481 79748
BY70-3                  
1 46839U 20079N   22073.83217295  .00020884  00000+0  56459-3 0  9992
2 46839  97.2082 147.4268 0005159 323.2735 176.9808 15.37734263 75683
SPOC                    
1 46921U 98067RR  22073.44366105  .00101666  00000+0  88029-3 0  9994
2 46921  51.6364  60.1720 0003756  65.4838 294.6550 15.68346139 76976
BOBCAT-1                
1 46922U 98067RS  22073.38617547  .00373946  00000+0  14393-2 0  9991
2 46922  51.6331  48.5156 0005821  91.0263 269.1408 15.85770171 77095
NEUTRON-1               
1 46923U 98067RT  22073.48049042  .00079852  00000+0  69823-3 0  9990
2 46923  51.6374  60.4263 0004017  67.6114 292.5308 15.68207351 77012
DESCENT                 
1 46927U 98067RX  22073.40621241  .00108387  00000+0  92256-3 0  9995
2 46927  51.6366  60.6769 0004492  73.9094 286.2397 15.68731912 76915
UVSQ-SAT                
1 47438U 21006AB  22073.43765807  .00008523  00000+0  46681-3 0  9994
2 47438  97.4506 134.4299 0011053 240.8095 119.2032 15.14408434 62896
SOMP2B                  
1 47445U 21006AJ  22073.41908462  .00007090  00000+0  39155-3 0  9992
2 47445  97.4479 134.1512 0010568 244.9952 115.0183 15.14179874 62888
WARP-01                 
1 47924U 98067SA  22073.34936779  .00217702  00000+0  14978-2 0  9997
2 47924  51.6338  66.2389 0007081  62.5349 297.6369 15.73412959 56888
RSP-01                  
1 47925U 98067SB  22073.39582685  .00114609  00000+0  10534-2 0  9992
2 47925  51.6380  69.6114 0003439  51.1072 309.0231 15.66823918 56822
TAUSAT-1                
1 47926U 98067SC  22073.19430546  .00228457  00000+0  15625-2 0  9992
2 47926  51.6349  65.9759 0004102  52.1424 307.9946 15.73537265 56849
TSURU                   
1 47927U 98067SD  22073.39469478  .00095836  00000+0  96096-3 0  9996
2 47927  51.6372  71.0978 0003046  45.9270 314.1975 15.64730354 56804
STARS-EC                
1 47928U 98067SE  22073.25623128  .00314582  00000+0  18135-2 0  9995
2 47928  51.6338  65.6270 0007790  67.0837 293.0985 15.77182880 56844
MAYA-2                  
1 47929U 98067SF  22073.39132039  .00094071  00000+0  94537-3 0  9996
2 47929  51.6375  71.0741 0002901  45.2322 314.8909 15.64682641 56761
HIROGARI (OPUSAT-II)    
1 47930U 98067SG  22073.43556734  .00262331  00000+0  14217-2 0  9997
2 47930  51.6316  63.0742 0005089  70.8867 289.2684 15.78731131 56914
GUARANISAT-1            
1 47931U 98067SH  22073.38318567  .00094540  00000+0  94566-3 0  9993
2 47931  51.6385  71.0339 0002943  44.6456 315.4775 15.64798096 56800
DIY-1 (ARDUIQUBE)       
1 47963U 21022AH  22073.23729663  .00021067  00000+0  12839-2 0  9998
2 47963  97.5415 335.8941 0020294  99.2939 261.0586 15.10216061 52562
